start=new Date('2022-12-15T00:00:00.000Z').valueOf();
sats=[{"ELEMENT_SET_NO":"999","FILE":"3699647","TLE_LINE2":"2 49178  70.0007  31.8111 0003210 252.9717 107.1090 14.98340301 70254","MEAN_ELEMENT_THEORY":"SGP4","APOAPSIS":"574.257","TLE_LINE1":"1 49178U 21082BA  22348.83590709  .00000826  00000-0  76952-4 0  9991","EPOCH":"2022-12-14T20:03:42.372576","EPHEMERIS_TYPE":"0","TIME_SYSTEM":"UTC","CLASSIFICATION_TYPE":"U","REF_FRAME":"TEME","RCS_SIZE":"LARGE","MEAN_MOTION_DOT":"0.00000826","ECCENTRICITY":"0.00032100","OBJECT_TYPE":"PAYLOAD","RA_OF_ASC_NODE":"31.8111","CENTER_NAME":"EARTH","SITE":"AFWTR","PERIOD":"96.106","MEAN_MOTION_DDOT":"0.0000000000000","NORAD_CAT_ID":"49178","INCLINATION":"70.0007","PERIAPSIS":"569.795","DECAY_DATE":null,"COUNTRY_CODE":"US","SEMIMAJOR_AXIS":"6950.161","GP_ID":"220408358","LAUNCH_DATE":"2021-09-14","OBJECT_ID":"2021-082BA","MEAN_ANOMALY":"107.1090","OBJECT_NAME":"STARLINK-3086","ARG_OF_PERICENTER":"252.9717","MEAN_MOTION":"14.98340301","BSTAR":"0.00007695200000","REV_AT_EPOCH":"7025"},{"RCS_SIZE":"LARGE","MEAN_MOTION_DOT":"-0.00000367","ECCENTRICITY":"0.00033990","TIME_SYSTEM":"UTC","CLASSIFICATION_TYPE":"U","REF_FRAME":"TEME","EPOCH":"2022-12-14T23:57:05.314752","EPHEMERIS_TYPE":"0","MEAN_ELEMENT_THEORY":"SGP4","APOAPSIS":"574.426","TLE_LINE1":"1 49179U 21082BB  22348.99797818 -.00000367  00000-0 -22975-4 0  9997","FILE":"3699719","TLE_LINE2":"2 49179  70.0007 351.4031 0003399 277.4016  82.6757 14.98328247 70105","ELEMENT_SET_NO":"999","MEAN_MOTION":"14.98328247","ARG_OF_PERICENTER":"277.4016","BSTAR":"-0.00002297500000","REV_AT_EPOCH":"7010","LAUNCH_DATE":"2021-09-14","OBJECT_ID":"2021-082BB","OBJECT_NAME":"STARLINK-3043","MEAN_ANOMALY":"82.6757","COUNTRY_CODE":"US","DECAY_DATE":null,"SEMIMAJOR_AXIS":"6950.198","GP_ID":"220414310","INCLINATION":"70.0007","PERIAPSIS":"569.701","PERIOD":"96.107","MEAN_MOTION_DDOT":"0.0000000000000","NORAD_CAT_ID":"49179","OBJECT_TYPE":"PAYLOAD","CENTER_NAME":"EARTH","RA_OF_ASC_NODE":"351.4031","SITE":"AFWTR"},{"BSTAR":"0.00007925200000","MEAN_MOTION":"14.98333196","ARG_OF_PERICENTER":"271.1758","REV_AT_EPOCH":"7075","LAUNCH_DATE":"2021-09-14","OBJECT_ID":"2021-082BC","MEAN_ANOMALY":"88.9041","OBJECT_NAME":"STARLINK-3050","SEMIMAJOR_AXIS":"6950.183","COUNTRY_CODE":"US","DECAY_DATE":null,"GP_ID":"220414307","INCLINATION":"70.0027","PERIAPSIS":"569.864","NORAD_CAT_ID":"49180","MEAN_MOTION_DDOT":"0.0000000000000","PERIOD":"96.107","OBJECT_TYPE":"PAYLOAD","SITE":"AFWTR","RA_OF_ASC_NODE":"11.9451","CENTER_NAME":"EARTH","MEAN_MOTION_DOT":"0.00000853","RCS_SIZE":"LARGE","ECCENTRICITY":"0.00031430","TIME_SYSTEM":"UTC","REF_FRAME":"TEME","CLASSIFICATION_TYPE":"U","EPHEMERIS_TYPE":"0","EPOCH":"2022-12-14T18:43:13.220832","MEAN_ELEMENT_THEORY":"SGP4","APOAPSIS":"574.232","TLE_LINE1":"1 49180U 21082BC  22348.78001413  .00000853  00000-0  79252-4 0  9993","FILE":"3699719","TLE_LINE2":"2 49180  70.0027  11.9451 0003143 271.1758  88.9041 14.98333196 70759","ELEMENT_SET_NO":"999"},{"NORAD_CAT_ID":"49181","PERIOD":"96.107","MEAN_MOTION_DDOT":"0.0000000000000","SITE":"AFWTR","RA_OF_ASC_NODE":"32.5243","CENTER_NAME":"EARTH","OBJECT_TYPE":"PAYLOAD","MEAN_ANOMALY":"80.9169","OBJECT_NAME":"STARLINK-3059","OBJECT_ID":"2021-082BD","LAUNCH_DATE":"2021-09-14","REV_AT_EPOCH":"7024","BSTAR":"0.00008275400000","ARG_OF_PERICENTER":"279.1640","MEAN_MOTION":"14.98332141","PERIAPSIS":"569.904","INCLINATION":"70.0014","GP_ID":"220365596","SEMIMAJOR_AXIS":"6950.186","DECAY_DATE":null,"COUNTRY_CODE":"US","FILE":"3698874","TLE_LINE2":"2 49181  70.0014  32.5243 0003090 279.1640  80.9169 14.98332141 70249","TLE_LINE1":"1 49181U 21082BD  22348.54980118  .00000895  00000-0  82754-4 0  9993","MEAN_ELEMENT_THEORY":"SGP4","APOAPSIS":"574.199","ELEMENT_SET_NO":"999","REF_FRAME":"TEME","CLASSIFICATION_TYPE":"U","TIME_SYSTEM":"UTC","ECCENTRICITY":"0.00030900","MEAN_MOTION_DOT":"0.00000895","RCS_SIZE":"LARGE","EPHEMERIS_TYPE":"0","EPOCH":"2022-12-14T13:11:42.821952"},{"OBJECT_TYPE":"PAYLOAD","CENTER_NAME":"EARTH","RA_OF_ASC_NODE":"130.7157","SITE":"AFETR","PERIOD":"95.438","MEAN_MOTION_DDOT":"0.0000000000000","NORAD_CAT_ID":"49408","PERIAPSIS":"537.239","INCLINATION":"53.2164","DECAY_DATE":null,"COUNTRY_CODE":"US","SEMIMAJOR_AXIS":"6917.879","GP_ID":"220409639","LAUNCH_DATE":"2021-11-13","OBJECT_ID":"2021-104A","OBJECT_NAME":"STARLINK-3151","MEAN_ANOMALY":"301.4465","MEAN_MOTION":"15.08840305","ARG_OF_PERICENTER":"58.6881","BSTAR":"0.00007546100000","REV_AT_EPOCH":"6034","ELEMENT_SET_NO":"999","FILE":"3699647","TLE_LINE2":"2 49408  53.2164 130.7157 0003622  58.6881 301.4465 15.08840305 60341","APOAPSIS":"542.250","MEAN_ELEMENT_THEORY":"SGP4","TLE_LINE1":"1 49408U 21104A   22348.71769318  .00000912  00000-0  75461-4 0  9993","EPOCH":"2022-12-14T17:13:28.690752","EPHEMERIS_TYPE":"0","TIME_SYSTEM":"UTC","CLASSIFICATION_TYPE":"U","REF_FRAME":"TEME","RCS_SIZE":"LARGE","MEAN_MOTION_DOT":"0.00000912","ECCENTRICITY":"0.00036220"},{"ELEMENT_SET_NO":"999","APOAPSIS":"541.592","MEAN_ELEMENT_THEORY":"SGP4","TLE_LINE1":"1 49409U 21104B   22348.79863088  .00002280  00000-0  16131-3 0  9999","FILE":"3699647","TLE_LINE2":"2 49409  53.2139 130.3534 0002693  49.5220 310.6006 15.08845476 60361","EPOCH":"2022-12-14T19:10:01.708032","EPHEMERIS_TYPE":"0","RCS_SIZE":"LARGE","MEAN_MOTION_DOT":"0.00002280","ECCENTRICITY":"0.00026930","TIME_SYSTEM":"UTC","CLASSIFICATION_TYPE":"U","REF_FRAME":"TEME","OBJECT_TYPE":"PAYLOAD","CENTER_NAME":"EARTH","RA_OF_ASC_NODE":"130.3534","SITE":"AFETR","MEAN_MOTION_DDOT":"0.0000000000000","PERIOD":"95.437","NORAD_CAT_ID":"49409","COUNTRY_CODE":"US","DECAY_DATE":null,"SEMIMAJOR_AXIS":"6917.864","GP_ID":"220409885","PERIAPSIS":"537.866","INCLINATION":"53.2139","ARG_OF_PERICENTER":"49.5220","MEAN_MOTION":"15.08845476","BSTAR":"0.00016131000000","REV_AT_EPOCH":"6036","LAUNCH_DATE":"2021-11-13","OBJECT_ID":"2021-104B","OBJECT_NAME":"STARLINK-3075","MEAN_ANOMALY":"310.6006"},{"NORAD_CAT_ID":"49410","PERIOD":"95.438","MEAN_MOTION_DDOT":"0.0000000000000","SITE":"AFETR","CENTER_NAME":"EARTH","RA_OF_ASC_NODE":"130.9812","OBJECT_TYPE":"PAYLOAD","REV_AT_EPOCH":"6033","BSTAR":"0.00001147200000","ARG_OF_PERICENTER":"53.4565","MEAN_MOTION":"15.08828378","MEAN_ANOMALY":"306.6733","OBJECT_NAME":"STARLINK-3147","OBJECT_ID":"2021-104C","LAUNCH_DATE":"2021-11-13","GP_ID":"220410635","SEMIMAJOR_AXIS":"6917.916","DECAY_DATE":null,"COUNTRY_CODE":"US","PERIAPSIS":"537.479","INCLINATION":"53.2159","TLE_LINE1":"1 49410U 21104C   22348.65880699 -.00000106  00000-0  11472-4 0  9993","MEAN_ELEMENT_THEORY":"SGP4","APOAPSIS":"542.083","TLE_LINE2":"2 49410  53.2159 130.9812 0003327  53.4565 306.6733 15.08828378 60332","FILE":"3699647","ELEMENT_SET_NO":"999","ECCENTRICITY":"0.00033270","MEAN_MOTION_DOT":"-0.00000106","RCS_SIZE":"LARGE","REF_FRAME":"TEME","CLASSIFICATION_TYPE":"U","TIME_SYSTEM":"UTC","EPHEMERIS_TYPE":"0","EPOCH":"2022-12-14T15:48:40.923936"},{"ELEMENT_SET_NO":"999","TLE_LINE1":"1 49411U 21104D   22348.71861218 -.00001552  00000-0 -79425-4 0  9996","MEAN_ELEMENT_THEORY":"SGP4","APOAPSIS":"541.879","FILE":"3699647","TLE_LINE2":"2 49411  53.2159 120.7147 0003006  50.0413 310.0843 15.08822396 60481","EPOCH":"2022-12-14T17:14:48.092352","EPHEMERIS_TYPE":"0","ECCENTRICITY":"0.00030060","RCS_SIZE":"LARGE","MEAN_MOTION_DOT":"-0.00001552","CLASSIFICATION_TYPE":"U","REF_FRAME":"TEME","TIME_SYSTEM":"UTC","CENTER_NAME":"EARTH","RA_OF_ASC_NODE":"120.7147","SITE":"AFETR","OBJECT_TYPE":"PAYLOAD","PERIOD":"95.439","MEAN_MOTION_DDOT":"0.0000000000000","NORAD_CAT_ID":"49411","GP_ID":"220410381","COUNTRY_CODE":"US","DECAY_DATE":null,"SEMIMAJOR_AXIS":"6917.934","PERIAPSIS":"537.720","INCLINATION":"53.2159","REV_AT_EPOCH":"6048","ARG_OF_PERICENTER":"50.0413","MEAN_MOTION":"15.08822396","BSTAR":"-0.00007942500000","MEAN_ANOMALY":"310.0843","OBJECT_NAME":"STARLINK-3162","LAUNCH_DATE":"2021-11-13","OBJECT_ID":"2021-104D"},{"ECCENTRICITY":"0.00031610","RCS_SIZE":"LARGE","MEAN_MOTION_DOT":"0.00000971","CLASSIFICATION_TYPE":"U","REF_FRAME":"TEME","TIME_SYSTEM":"UTC","EPOCH":"2022-12-14T15:53:57.953184","EPHEMERIS_TYPE":"0","TLE_LINE1":"1 49412U 21104E   22348.66247631  .00000971  00000-0  79163-4 0  9999","APOAPSIS":"541.943","MEAN_ELEMENT_THEORY":"SGP4","TLE_LINE2":"2 49412  53.2159 130.9662 0003161  58.2495 301.8805 15.08836434 60348","FILE":"3699647","ELEMENT_SET_NO":"999","REV_AT_EPOCH":"6034","MEAN_MOTION":"15.08836434","ARG_OF_PERICENTER":"58.2495","BSTAR":"0.00007916300000","MEAN_ANOMALY":"301.8805","OBJECT_NAME":"STARLINK-3144","LAUNCH_DATE":"2021-11-13","OBJECT_ID":"2021-104E","GP_ID":"220409139","DECAY_DATE":null,"COUNTRY_CODE":"US","SEMIMAJOR_AXIS":"6917.891","PERIAPSIS":"537.570","INCLINATION":"53.2159","MEAN_MOTION_DDOT":"0.0000000000000","PERIOD":"95.438","NORAD_CAT_ID":"49412","RA_OF_ASC_NODE":"130.9662","CENTER_NAME":"EARTH","SITE":"AFETR","OBJECT_TYPE":"PAYLOAD"},{"MEAN_MOTION_DDOT":"0.0000000000000","PERIOD":"95.437","NORAD_CAT_ID":"49413","OBJECT_TYPE":"PAYLOAD","RA_OF_ASC_NODE":"120.7283","CENTER_NAME":"EARTH","SITE":"AFETR","MEAN_MOTION":"15.08842625","ARG_OF_PERICENTER":"46.1050","BSTAR":"0.00008456900000","REV_AT_EPOCH":"6048","OBJECT_ID":"2021-104F","LAUNCH_DATE":"2021-11-13","MEAN_ANOMALY":"314.0196","OBJECT_NAME":"STARLINK-3157","COUNTRY_CODE":"US","DECAY_DATE":null,"SEMIMAJOR_AXIS":"6917.872","GP_ID":"220409385","PERIAPSIS":"537.605","INCLINATION":"53.2166","MEAN_ELEMENT_THEORY":"SGP4","APOAPSIS":"541.870","TLE_LINE1":"1 49413U 21104F   22348.71491008  .00001058  00000-0  84569-4 0  9998","TLE_LINE2":"2 49413  53.2166 120.7283 0003083  46.1050 314.0196 15.08842625 60482","FILE":"3699647","ELEMENT_SET_NO":"999","RCS_SIZE":"LARGE","MEAN_MOTION_DOT":"0.00001058","ECCENTRICITY":"0.00030830","TIME_SYSTEM":"UTC","CLASSIFICATION_TYPE":"U","REF_FRAME":"TEME","EPOCH":"2022-12-14T17:09:28.230912","EPHEMERIS_TYPE":"0"}];
